IRIDIUM 154             
1 43574U 18061F   26061.62532119  .00000292  00000+0  97184-4 0  9998
2 43574  86.3926 101.3816 0002188  98.9479 261.1965 14.34220996398138
IRIDIUM 163             
1 43575U 18061G   26061.60627899  .00000049  00000+0  10391-4 0  9992
2 43575  86.3924 101.3084 0002258  91.5058 268.6396 14.34217719398100
IRIDIUM 156             
1 43576U 18061H   26061.65067656  .00000066  00000+0  16675-4 0  9997
2 43576  86.3922 101.2967 0002030  93.4733 266.6695 14.34217887398103
IRIDIUM 164             
1 43577U 18061J   26061.63164902  .00000114  00000+0  33661-4 0  9996
2 43577  86.3925 101.3435 0002325  98.0490 262.0970 14.34218286398140
IRIDIUM 159             
1 43578U 18061K   26061.59993662 -.00000089  00000+0 -38964-4 0  9999
2 43578  86.3923 101.2953 0002276  92.4471 267.6985 14.34217283398104
IRIDIUM 180             
1 43922U 19002A   26061.45989526  .00000046  00000+0  94230-5 0  9997
2 43922  86.3961  38.1876 0002314  86.4348 273.7113 14.34217703373695
IRIDIUM 176             
1 43923U 19002B   26061.85748711  .00001288  00000+0  20032-3 0  9997
2 43923  86.6082  37.9795 0002348  87.5252 272.6234 14.72261783383606
IRIDIUM 168             
1 43924U 19002C   26061.45355054  .00000352  00000+0  11853-3 0  9990
2 43924  86.3961  38.2645 0002228  86.8555 273.2895 14.34219714373674
IRIDIUM 173             
1 43925U 19002D   26061.65016866 -.00000533  00000+0 -19726-3 0  9998
2 43925  86.3955  38.0757 0002078  80.3077 279.8353 14.34215136373687
IRIDIUM 169             
1 43926U 19002E   26061.62325214  .00000326  00000+0  10019-3 0  9990
2 43926  86.4164  69.7450 0001612  73.6858 286.4517 14.38610251374900
IRIDIUM 172             
1 43927U 19002F   26061.43452470  .00000076  00000+0  20188-4 0  9996
2 43927  86.3961  38.1733 0002364  87.0096 273.1370 14.34217773373667
IRIDIUM 175             
1 43928U 19002G   26061.78493219  .00001255  00000+0  19510-3 0  9997
2 43928  86.1547 335.9345 0002194 112.7242 247.4207 14.72254758383584
IRIDIUM 171             
1 43929U 19002H   26061.48526473  .00000091  00000+0  25373-4 0  9996
2 43929  86.3968  38.4467 0002032  91.4563 268.6866 14.34218021373669
IRIDIUM 170             
1 43930U 19002J   26061.45586880  .00001292  00000+0  20098-3 0  9995
2 43930  86.6080  38.1505 0002610  91.6531 268.4985 14.72253949383557
IRIDIUM 167             
1 43931U 19002K   26061.47892195  .00000019  00000+0 -21261-6 0  9990
2 43931  86.3958  38.1761 0001852  89.4639 270.6769 14.34217881373663
IRIDIUM 181             
1 56726U 23068S   26061.61651272  .00000380  00000+0  10698-3 0  9997
2 56726  86.4462 101.3589 0002594  98.9823 261.1671 14.43313307147065
IRIDIUM 177             
1 56727U 23068T   26061.37684037  .00001051  00000+0  13482-3 0  9996
2 56727  86.1991  19.4931 0002399  79.9044 280.2448 14.80233020150564
IRIDIUM 174             
1 56728U 23068U   26061.64741873  .00001342  00000+0  20893-3 0  9996
2 56728  86.6087  38.2072 0002624  83.7503 276.4013 14.72256813150342
IRIDIUM 178             
1 56729U 23068V   26061.56873912  .00000659  00000+0  83282-4 0  9990
2 56729  86.6480  69.9182 0002297 102.5418 257.6061 14.80241345150598
IRIDIUM 179             
1 56730U 23068W   26061.56337579  .00000612  00000+0  77124-4 0  9993
2 56730  86.6717  78.5910 0002256  93.2841 266.8639 14.80237782150592
